SIRION PATHFINDER-2     
1 43759U 18099B   26182.38589249  .00005099  00000+0  27896-3 0  9999
2 43759  97.4243 231.1062 0007242 244.4216 115.6268 15.14671485414776
CORVUS BC4              
1 43767U 18099K   26182.08100218  .00005142  00000+0  29796-3 0  9990
2 43767  97.4054 224.6547 0006930 321.1885  38.8848 15.12603535414508
M2 PATHFINDER           
1 45727U 20037E   26182.94284264  .00003300  00000+0  23833-3 0  9992
2 45727  97.8146  14.3397 0012826 102.7020 257.5641 15.04743095327718
NETSAT-4                
1 46504U 20068U   26182.96506679  .00021218  00000+0  46129-3 0  9990
2 46504  97.8597 192.3974 0003392 253.0481 107.0394 15.44359065318054
NETSAT-3                
1 46505U 20068V   26182.46384424  .00021692  00000+0  49071-3 0  9993
2 46505  97.8647 190.0546 0002894 286.5770  73.5158 15.43171946317883
NETSAT-1                
1 46506U 20068W   26182.93508325  .00014646  00000+0  43383-3 0  9995
2 46506  97.8743 184.7190 0003162 339.3476  20.7638 15.34979653317568
NETSAT-2                
1 46507U 20068X   26182.27237958  .00031310  00000+0  62895-3 0  9990
2 46507  97.8608 191.5959 0001498 318.0900  42.0233 15.46605782317913
GREENCUBE (IO-117)      
1 53109U 22080E   26181.72466670 -.00000003  00000+0  00000+0 0  9998
2 53109  70.1437 293.5372 0008958 286.6703  73.2973  6.42583253 92937
SITRO-AIS 5 (KATYS)     
1 57176U 23091L   26182.91987627  .00015012  00000+0  52130-3 0  9991
2 57176  97.5053 246.9617 0011997  57.3613 302.8783 15.29796343166591
SITRO-AIS 6 (CHIRKIN)   
1 57192U 23091AC  26182.93305643  .00012505  00000+0  48465-3 0  9993
2 57192  97.5059 246.0154 0012441  60.5601 299.6878 15.26216800166534
SITRO-AIS 8 (ANOKHIN)   
1 57193U 23091AD  26182.91088060  .00017920  00000+0  57117-3 0  9993
2 57193  97.5049 248.6018 0010857  53.5736 306.6505 15.32538884166702
SITRO-AIS 7 (FARTUSHNIY)
1 57194U 23091AE  26182.93924765  .00012302  00000+0  48145-3 0  9997
2 57194  97.5056 245.8389 0012362  61.5835 298.6648 15.25898532166522
SITRO-AIS 10 (BURDAEV)  
1 57199U 23091AK  26182.94482030  .00024853  00000+0  64056-3 0  9990
2 57199  97.5075 253.8445 0006180  33.2460 326.9172 15.39171555167039
SITRO-AIS 9 (SHCHUKIN)  
1 57201U 23091AM  26182.91094707  .00023794  00000+0  62355-3 0  9994
2 57201  97.5074 253.5282 0006453  33.1942 326.9707 15.38667614167012
SITRO-AIS 12 (SMIRENNIY)
1 57204U 23091AQ  26182.89876645  .00024528  00000+0  63661-3 0  9990
2 57204  97.5087 253.9922 0005932  27.5574 332.5984 15.38960913167033
SITRO-AIS 11 (SHEFFER)  
1 57208U 23091AU  26182.90808020  .00023505  00000+0  60173-3 0  9997
2 57208  97.5086 254.2576 0005826  27.2808 332.8742 15.39392914167052
SITRO-AIS 25            
1 59066U 24039R   26182.98166601  .00003293  00000+0  25863-3 0  9993
2 59066  95.3899 245.2591 0142308 276.3514  82.1522 14.93583132126935
SITRO-AIS 26            
1 59067U 24039S   26182.98506659  .00003141  00000+0  24799-3 0  9994
2 59067  95.3900 245.1560 0142634 276.9553  81.5466 14.93376994126920
SITRO-AIS 27            
1 59068U 24039T   26182.95114832  .00002371  00000+0  18627-3 0  9997
2 59068  95.3904 245.4116 0141767 275.6495  82.8579 14.93799234126949
SITRO-AIS 28            
1 59071U 24039U   26182.92826564  .00003287  00000+0  25693-3 0  9998
2 59071  95.3906 245.4437 0141528 275.5539  82.9560 14.93833812126946
GRBBETA                 
1 60237U 24128C   26182.95339631  .00004167  00000+0  28867-3 0  9994
2 60237  61.9884 164.4549 0038745 137.8809 222.5273 15.06729432108496
OOV-CUBE (TUBSAT-30)    
1 60240U 24128F   26182.69381773  .00002059  00000+0  16577-3 0  9996
2 60240  61.9932 174.9862 0042803 136.9261 223.5193 15.02826243108294
ROBUSTA-3A (MEDITERRAN*)
1 60243U 24128J   26182.95116491  .00007532  00000+0  44300-3 0  9997
2 60243  61.9852 156.0272 0039685 130.9602 229.4939 15.11824345108655
LASARSAT                
1 62391U 24247Q   26182.44264836  .00038073  00000+0  73494-3 0  9996
2 62391  44.9721 182.0574 0006634  62.8619 297.2947 15.47204595 85520
CROCUBE                 
1 62394U 24247T   26182.29360318  .00051030  00000+0  91475-3 0  9991
2 62394  44.9690 179.9931 0006553  67.6168 292.5416 15.49208624 85531
FORESAIL-1 PRIME        
1 66778U 25276DS  26182.68895572  .00005603  00000+0  27225-3 0  9999
2 66778  97.4199 255.6950 0003689  74.0984 286.0656 15.18830309 32607
KNACKSAT-2              
1 67683U 98067XZ  26182.82238344  .00050772  00000+0  58829-3 0  9998
2 67683  51.6258 220.7932 0008418 279.6768  80.3274 15.61262261 22561
