OBJECT_NAME,OBJECT_ID,EPOCH,MEAN_MOTION,ECCENTRICITY,INCLINATION,RA_OF_ASC_NODE,ARG_OF_PERICENTER,MEAN_ANOMALY,EPHEMERIS_TYPE,CLASSIFICATION_TYPE,NORAD_CAT_ID,ELEMENT_SET_NO,REV_AT_EPOCH,BSTAR,MEAN_MOTION_DOT,MEAN_MOTION_DDOT
SIRION PATHFINDER-2,2018-099B,2026-07-01T09:15:41.111136,15.14671485,.00072425,97.4243,231.1062,244.4216,115.6268,0,U,43759,999,41477,.27895555E-3,.5099E-4,0
CORVUS BC4,2018-099K,2026-07-01T01:56:38.588352,15.12603535,.00069308,97.4054,224.6547,321.1885,38.8848,0,U,43767,999,41450,.29796216E-3,.5142E-4,0
M2 PATHFINDER,2020-037E,2026-07-01T22:37:41.604096,15.04743095,.00128263,97.8146,14.3397,102.7020,257.5641,0,U,45727,999,32771,.23832871E-3,.33E-4,0
NETSAT-4,2020-068U,2026-07-01T23:09:41.770656,15.44359065,.00033922,97.8597,192.3974,253.0481,107.0394,0,U,46504,999,31805,.46128639E-3,.21218E-3,0
NETSAT-3,2020-068V,2026-07-01T11:07:56.142336,15.43171946,.00028947,97.8647,190.0546,286.5770,73.5158,0,U,46505,999,31788,.49071231E-3,.21692E-3,0
NETSAT-1,2020-068W,2026-07-01T22:26:31.192800,15.34979653,.00031628,97.8743,184.7190,339.3476,20.7638,0,U,46506,999,31756,.4338305E-3,.14646E-3,0
NETSAT-2,2020-068X,2026-07-01T06:32:13.595712,15.46605782,.0001498,97.8608,191.5959,318.0900,42.0233,0,U,46507,999,31791,.62895E-3,.3131E-3,0
GREENCUBE (IO-117),2022-080E,2026-06-30T17:23:31.202880,6.42583253,.00089588,70.1437,293.5372,286.6703,73.2973,0,U,53109,999,9293,0,-.3E-7,0
SITRO-AIS 5 (KATYS),2023-091L,2026-07-01T22:04:37.309728,15.29796343,.00119971,97.5053,246.9617,57.3613,302.8783,0,U,57176,999,16659,.5213031E-3,.15012E-3,0
SITRO-AIS 6 (CHIRKIN),2023-091AC,2026-07-01T22:23:36.075552,15.26216800,.00124414,97.5059,246.0154,60.5601,299.6878,0,U,57192,999,16653,.48464586E-3,.12505E-3,0
SITRO-AIS 8 (ANOKHIN),2023-091AD,2026-07-01T21:51:40.083840,15.32538884,.0010857,97.5049,248.6018,53.5736,306.6505,0,U,57193,999,16670,.57116876E-3,.1792E-3,0
SITRO-AIS 7 (FARTUSHNIY),2023-091AE,2026-07-01T22:32:30.996960,15.25898532,.00123624,97.5056,245.8389,61.5835,298.6648,0,U,57194,999,16652,.48144895E-3,.12302E-3,0
SITRO-AIS 10 (BURDAEV),2023-091AK,2026-07-01T22:40:32.473920,15.39171555,.00061801,97.5075,253.8445,33.2460,326.9172,0,U,57199,999,16703,.64055632E-3,.24853E-3,0
SITRO-AIS 9 (SHCHUKIN),2023-091AM,2026-07-01T21:51:45.826848,15.38667614,.00064539,97.5074,253.5282,33.1942,326.9707,0,U,57201,999,16701,.62354613E-3,.23794E-3,0
SITRO-AIS 12 (SMIRENNIY),2023-091AQ,2026-07-01T21:34:13.421280,15.38960913,.00059321,97.5087,253.9922,27.5574,332.5984,0,U,57204,999,16703,.63661078E-3,.24528E-3,0
SITRO-AIS 11 (SHEFFER),2023-091AU,2026-07-01T21:47:38.129280,15.39392914,.00058265,97.5086,254.2576,27.2808,332.8742,0,U,57208,999,16705,.60173376E-3,.23505E-3,0
SITRO-AIS 25,2024-039R,2026-07-01T23:33:35.943264,14.93583132,.0142308,95.3899,245.2591,276.3514,82.1522,0,U,59066,999,12693,.25863374E-3,.3293E-4,0
SITRO-AIS 26,2024-039S,2026-07-01T23:38:29.753376,14.93376994,.01426343,95.3900,245.1560,276.9553,81.5466,0,U,59067,999,12692,.24799407E-3,.3141E-4,0
SITRO-AIS 27,2024-039T,2026-07-01T22:49:39.214848,14.93799234,.01417673,95.3904,245.4116,275.6495,82.8579,0,U,59068,999,12694,.18627365E-3,.2371E-4,0
SITRO-AIS 28,2024-039U,2026-07-01T22:16:42.151296,14.93833812,.01415283,95.3906,245.4437,275.5539,82.9560,0,U,59071,999,12694,.2569296E-3,.3287E-4,0
GRBBETA,2024-128C,2026-07-01T22:52:53.441184,15.06729432,.00387459,61.9884,164.4549,137.8809,222.5273,0,U,60237,999,10849,.28866723E-3,.4167E-4,0
OOV-CUBE (TUBSAT-30),2024-128F,2026-07-01T16:39:05.851872,15.02826243,.00428034,61.9932,174.9862,136.9261,223.5193,0,U,60240,999,10829,.1657735E-3,.2059E-4,0
ROBUSTA-3A (MEDITERRANEE),2024-128J,2026-07-01T22:49:40.648224,15.11824345,.00396856,61.9852,156.0272,130.9602,229.4939,0,U,60243,999,10865,.44300126E-3,.7532E-4,0
LASARSAT,2024-247Q,2026-07-01T10:37:24.818304,15.47204595,.00066341,44.9721,182.0574,62.8619,297.2947,0,U,62391,999,8552,.73494225E-3,.38073E-3,0
CROCUBE,2024-247T,2026-07-01T07:02:47.314752,15.49208624,.0006553,44.9690,179.9931,67.6168,292.5416,0,U,62394,999,8553,.91475E-3,.5103E-3,0
FORESAIL-1 PRIME,2025-276DS,2026-07-01T16:32:05.774208,15.18830309,.00036894,97.4199,255.6950,74.0984,286.0656,0,U,66778,999,3260,.27224935E-3,.5603E-4,0
KNACKSAT-2,1998-067XZ,2026-07-01T19:44:13.929216,15.61262261,.00084185,51.6258,220.7932,279.6768,80.3274,0,U,67683,999,2256,.58828552E-3,.50772E-3,0
